[{"OBJECT_NAME":"ONEWEB-0435","OBJECT_ID":"2022-012L","EPOCH":"2026-03-09T22:20:25.757952","MEAN_MOTION":13.1037626,"ECCENTRICITY":0.00018269,"INCLINATION":87.8772,"RA_OF_ASC_NODE":56.0428,"ARG_OF_PERICENTER":98.6962,"MEAN_ANOMALY":261.4373,"EPHEMERIS_TYPE":0,"CLASSIFICATION_TYPE":"U","NORAD_CAT_ID":51632,"ELEMENT_SET_NO":999,"REV_AT_EPOCH":19631,"BSTAR":4.7716794e-5,"MEAN_MOTION_DOT":2.9e-7,"MEAN_MOTION_DDOT":0},{"OBJECT_NAME":"ONEWEB-0022","OBJECT_ID":"2020-008E","EPOCH":"2026-03-09T22:21:09.366624","MEAN_MOTION":13.10485077,"ECCENTRICITY":0.00021734,"INCLINATION":87.8781,"RA_OF_ASC_NODE":56.0657,"ARG_OF_PERICENTER":85.762,"MEAN_ANOMALY":274.3756,"EPHEMERIS_TYPE":0,"CLASSIFICATION_TYPE":"U","NORAD_CAT_ID":45135,"ELEMENT_SET_NO":999,"REV_AT_EPOCH":29535,"BSTAR":0.00023613537,"MEAN_MOTION_DOT":9.5e-7,"MEAN_MOTION_DDOT":0}]
